[{"OBJECT_NAME":"PHISAT 2","OBJECT_ID":"2024-149C","EPOCH":"2026-03-09T18:55:12.732384","MEAN_MOTION":15.29548632,"ECCENTRICITY":0.00011753,"INCLINATION":97.3806,"RA_OF_ASC_NODE":148.6498,"ARG_OF_PERICENTER":168.623,"MEAN_ANOMALY":191.5037,"EPHEMERIS_TYPE":0,"CLASSIFICATION_TYPE":"U","NORAD_CAT_ID":60470,"ELEMENT_SET_NO":999,"REV_AT_EPOCH":8679,"BSTAR":0.00031420974,"MEAN_MOTION_DOT":8.925e-5,"MEAN_MOTION_DDOT":0},{"OBJECT_NAME":"STARLINK-35874","OBJECT_ID":"2025-288D","EPOCH":"2026-03-09T05:45:41.692896","MEAN_MOTION":15.27570001,"ECCENTRICITY":0.00018406,"INCLINATION":43.0023,"RA_OF_ASC_NODE":26.4182,"ARG_OF_PERICENTER":276.9906,"MEAN_ANOMALY":83.0737,"EPHEMERIS_TYPE":0,"CLASSIFICATION_TYPE":"U","NORAD_CAT_ID":66962,"ELEMENT_SET_NO":999,"REV_AT_EPOCH":1521,"BSTAR":0.00086913696,"MEAN_MOTION_DOT":0.00023725,"MEAN_MOTION_DDOT":0}]
