PHISAT 2                
1 60470U 24149C   26068.78834181  .00008925  00000+0  31421-3 0  9996
2 60470  97.3806 148.6498 0001175 168.6230 191.5037 15.29548631 86792
STARLINK-35874          
1 66962U 25288D   26068.24006589  .00023725  00000+0  86914-3 0  9999
2 66962  43.0023  26.4182 0001840 276.9906  83.0737 15.27570001 15213
